[{"OBJECT_NAME":"STARLINK-34407","OBJECT_ID":"2025-126D","EPOCH":"2026-03-09T22:04:21.843264","MEAN_MOTION":14.98597116,"ECCENTRICITY":0.00057451,"INCLINATION":70.0054,"RA_OF_ASC_NODE":33.9827,"ARG_OF_PERICENTER":207.854,"MEAN_ANOMALY":152.2312,"EPHEMERIS_TYPE":0,"CLASSIFICATION_TYPE":"U","NORAD_CAT_ID":64347,"ELEMENT_SET_NO":999,"REV_AT_EPOCH":4071,"BSTAR":0.025029772,"MEAN_MOTION_DOT":0.00314549,"MEAN_MOTION_DDOT":0},{"OBJECT_NAME":"RAX (USA 218)","OBJECT_ID":"2010-062B","EPOCH":"2026-03-09T23:21:07.029792","MEAN_MOTION":14.99597607,"ECCENTRICITY":0.00156448,"INCLINATION":71.9685,"RA_OF_ASC_NODE":266.5192,"ARG_OF_PERICENTER":230.5338,"MEAN_ANOMALY":129.4452,"EPHEMERIS_TYPE":0,"CLASSIFICATION_TYPE":"U","NORAD_CAT_ID":37223,"ELEMENT_SET_NO":999,"REV_AT_EPOCH":9933,"BSTAR":0.00040559866,"MEAN_MOTION_DOT":4.944e-5,"MEAN_MOTION_DDOT":0}]
